{
    "CCSDS_OMM_VERS": "3.0",
    "COMMENT": "GENERATED VIA SPACE-TRACK.ORG API",
    "CREATION_DATE": "2025-05-22T17:14:14",
    "ORIGINATOR": "18 SPCS",
    "OBJECT_NAME": "GALILEO 5 (261)",
    "OBJECT_ID": "2014-050A",
    "CENTER_NAME": "EARTH",
    "REF_FRAME": "TEME",
    "TIME_SYSTEM": "UTC",
    "MEAN_ELEMENT_THEORY": "SGP4",
    "EPOCH": "2025-05-22T02:41:40.790688",
    "MEAN_MOTION": "1.85519579",
    "ECCENTRICITY": "0.16300580",
    "INCLINATION": "49.3027",
    "RA_OF_ASC_NODE": "289.3817",
    "ARG_OF_PERICENTER": "164.3212",
    "MEAN_ANOMALY": "201.4103",
    "EPHEMERIS_TYPE": "0",
    "CLASSIFICATION_TYPE": "U",
    "NORAD_CAT_ID": "40128",
    "ELEMENT_SET_NO": "999",
    "REV_AT_EPOCH": "7106",
    "BSTAR": "0.00000000000000",
    "MEAN_MOTION_DOT": "-0.00000061",
    "MEAN_MOTION_DDOT": "0.0000000000000",
    "SEMIMAJOR_AXIS": "27977.485",
    "PERIOD": "776.198",
    "APOAPSIS": "26159.843",
    "PERIAPSIS": "17038.858",
    "OBJECT_TYPE": "PAYLOAD",
    "RCS_SIZE": "LARGE",
    "COUNTRY_CODE": "ESA",
    "LAUNCH_DATE": "2014-08-22",
    "SITE": "FRGUI",
    "DECAY_DATE": null,
    "FILE": "4736220",
    "GP_ID": "288142992",
    "TLE_LINE0": "0 GALILEO 5 (261)",
    "TLE_LINE1": "1 40128U 14050A   25142.11227767 -.00000061  00000-0  00000-0 0  9990",
    "TLE_LINE2": "2 40128  49.3027 289.3817 1630058 164.3212 201.4103  1.85519579 71067"
}